ONEWEB-0435             
1 51632U 22012L   24155.47355891  .00000047  00000+0  99170-4 0  9993
2 51632  87.8944 184.1301 0002480  97.0059 263.1350 13.10368463111919
ONEWEB-0436             
1 51633U 22012M   24155.49420523 -.00000257  00000+0 -69615-3 0  9996
2 51633  87.9157 153.8908 0002261  92.4261 267.7129 13.17647864115745
ONEWEB-0438             
1 51634U 22012N   24155.45697020  .00000699  00000+0  19657-2 0  9999
2 51634  87.8947 184.1337 0001900  97.0961 263.0382 13.10372023111945
ONEWEB-0439             
1 51635U 22012P   24155.46029940  .00000672  00000+0  18901-2 0  9993
2 51635  87.8946 184.1179 0002108  92.5802 267.5567 13.10370806111923
ONEWEB-0442             
1 51636U 22012Q   24155.48550291 -.00000133  00000+0 -37480-3 0  9992
2 51636  87.9160 153.9268 0001330  74.6171 285.5108 13.17649900115737
ONEWEB-0443             
1 51637U 22012R   24155.50528048  .00000012  00000+0 -34579-5 0  9994
2 51637  87.9163 153.9306 0002298 100.8172 259.3218 13.17650846115788
ONEWEB-0444             
1 51638U 22012S   24155.45033336  .00000639  00000+0  17956-2 0  9991
2 51638  87.8945 184.1423 0002210  96.3077 263.8302 13.10372728111939
ONEWEB-0445             
1 51639U 22012T   24155.47189810  .00000165  00000+0  43735-3 0  9992
2 51639  87.8934 184.1109 0001859  86.2169 273.9171 13.10369122111948
